{"fetched_at":"2026-07-09T18:16:40.685Z","source":"https://celestrak.org/NORAD/elements/gp.php?GROUP=kuiper&FORMAT=JSON","constellation":"kuiper","records":[{"OBJECT_NAME":"KUIPER-00163","OBJECT_ID":"2025-217R","EPOCH":"2026-07-08T22:00:01.999584","CLASSIFICATION_TYPE":"U","MEAN_MOTION":16.00266626,"ECCENTRICITY":0.00046298,"INCLINATION":51.8759,"RA_OF_ASC_NODE":151.2755,"ARG_OF_PERICENTER":62.9957,"MEAN_ANOMALY":114.2878,"EPHEMERIS_TYPE":0,"NORAD_CAT_ID":65777,"ELEMENT_SET_NO":999,"REV_AT_EPOCH":595,"BSTAR":0.00037868504,"MEAN_MOTION_DOT":0.00199394,"MEAN_MOTION_DDOT":0.000027849043},{"OBJECT_NAME":"KUIPER-00165","OBJECT_ID":"2025-217S","EPOCH":"2026-07-08T11:14:36.464640","CLASSIFICATION_TYPE":"U","MEAN_MOTION":14.79929062,"ECCENTRICITY":0.00006605,"INCLINATION":51.8997,"RA_OF_ASC_NODE":221.521,"ARG_OF_PERICENTER":88.8553,"MEAN_ANOMALY":271.2485,"EPHEMERIS_TYPE":0,"NORAD_CAT_ID":65778,"ELEMENT_SET_NO":999,"REV_AT_EPOCH":4286,"BSTAR":-0.000051479077,"MEAN_MOTION_DOT":-0.00000613,"MEAN_MOTION_DDOT":0},{"OBJECT_NAME":"KUIPER-00166","OBJECT_ID":"2025-217T","EPOCH":"2026-07-08T07:30:56.566944","CLASSIFICATION_TYPE":"U","MEAN_MOTION":14.79930154,"ECCENTRICITY":0.00003387,"INCLINATION":51.9007,"RA_OF_ASC_NODE":209.7527,"ARG_OF_PERICENTER":96.515,"MEAN_ANOMALY":263.5851,"EPHEMERIS_TYPE":0,"NORAD_CAT_ID":65779,"ELEMENT_SET_NO":999,"REV_AT_EPOCH":4301,"BSTAR":4.76097e-7,"MEAN_MOTION_DOT":-0.00000217,"MEAN_MOTION_DDOT":0},{"OBJECT_NAME":"KUIPER-00167","OBJECT_ID":"2025-217U","EPOCH":"2026-07-08T09:21:47.305440","CLASSIFICATION_TYPE":"U","MEAN_MOTION":14.79943567,"ECCENTRICITY":0.00007899,"INCLINATION":51.8939,"RA_OF_ASC_NODE":231.7791,"ARG_OF_PERICENTER":90.66,"MEAN_ANOMALY":269.4453,"EPHEMERIS_TYPE":0,"NORAD_CAT_ID":65780,"ELEMENT_SET_NO":999,"REV_AT_EPOCH":4271,"BSTAR":-0.00047791865,"MEAN_MOTION_DOT":-0.00003863,"MEAN_MOTION_DDOT":0},{"OBJECT_NAME":"KUIPER-00168","OBJECT_ID":"2025-217V","EPOCH":"2026-07-08T08:11:47.410944","CLASSIFICATION_TYPE":"U","MEAN_MOTION":14.79925644,"ECCENTRICITY":0.00007059,"INCLINATION":51.8958,"RA_OF_ASC_NODE":214.5842,"ARG_OF_PERICENTER":98.3881,"MEAN_ANOMALY":261.7161,"EPHEMERIS_TYPE":0,"NORAD_CAT_ID":65781,"ELEMENT_SET_NO":999,"REV_AT_EPOCH":4295,"BSTAR":-0.00015256525,"MEAN_MOTION_DOT":-0.00001384,"MEAN_MOTION_DDOT":0},{"OBJECT_NAME":"KUIPER-00169","OBJECT_ID":"2025-217W","EPOCH":"2026-07-08T11:18:32.091264","CLASSIFICATION_TYPE":"U","MEAN_MOTION":14.79925134,"ECCENTRICITY":0.0000517,"INCLINATION":51.8991,"RA_OF_ASC_NODE":219.0221,"ARG_OF_PERICENTER":88.6593,"MEAN_ANOMALY":271.4428,"EPHEMERIS_TYPE":0,"NORAD_CAT_ID":65782,"ELEMENT_SET_NO":999,"REV_AT_EPOCH":4290,"BSTAR":0.000082005508,"MEAN_MOTION_DOT":0.00000404,"MEAN_MOTION_DDOT":0},{"OBJECT_NAME":"KUIPER-00170","OBJECT_ID":"2025-217X","EPOCH":"2026-07-08T03:04:31.344384","CLASSIFICATION_TYPE":"U","MEAN_MOTION":14.79932925,"ECCENTRICITY":0.00003998,"INCLINATION":51.8979,"RA_OF_ASC_NODE":225.498,"ARG_OF_PERICENTER":86.0881,"MEAN_ANOMALY":274.0127,"EPHEMERIS_TYPE":0,"NORAD_CAT_ID":65783,"ELEMENT_SET_NO":999,"REV_AT_EPOCH":4278,"BSTAR":0.00028319367,"MEAN_MOTION_DOT":0.00001938,"MEAN_MOTION_DDOT":0},{"OBJECT_NAME":"KUIPER-00172","OBJECT_ID":"2025-217Z","EPOCH":"2026-07-08T07:34:50.367072","CLASSIFICATION_TYPE":"U","MEAN_MOTION":14.79923472,"ECCENTRICITY":0.00008614,"INCLINATION":51.8987,"RA_OF_ASC_NODE":207.1967,"ARG_OF_PERICENTER":97.0282,"MEAN_ANOMALY":263.0779,"EPHEMERIS_TYPE":0,"NORAD_CAT_ID":65785,"ELEMENT_SET_NO":999,"REV_AT_EPOCH":4305,"BSTAR":0.00025759667,"MEAN_MOTION_DOT":0.00001743,"MEAN_MOTION_DDOT":0},{"OBJECT_NAME":"KUIPER-00173","OBJECT_ID":"2025-217AA","EPOCH":"2026-07-08T12:07:05.358432","CLASSIFICATION_TYPE":"U","MEAN_MOTION":14.79935819,"ECCENTRICITY":0.00006413,"INCLINATION":51.9007,"RA_OF_ASC_NODE":218.8684,"ARG_OF_PERICENTER":85.8846,"MEAN_ANOMALY":274.219,"EPHEMERIS_TYPE":0,"NORAD_CAT_ID":65786,"ELEMENT_SET_NO":999,"REV_AT_EPOCH":4290,"BSTAR":-0.00010751183,"MEAN_MOTION_DOT":-0.00001041,"MEAN_MOTION_DDOT":0},{"OBJECT_NAME":"KUIPER-00174","OBJECT_ID":"2025-217AB","EPOCH":"2026-07-08T10:37:40.269216","CLASSIFICATION_TYPE":"U","MEAN_MOTION":14.79929425,"ECCENTRICITY":0.00004018,"INCLINATION":51.9007,"RA_OF_ASC_NODE":214.191,"ARG_OF_PERICENTER":79.3733,"MEAN_ANOMALY":280.7275,"EPHEMERIS_TYPE":0,"NORAD_CAT_ID":65787,"ELEMENT_SET_NO":999,"REV_AT_EPOCH":4296,"BSTAR":0.0001118919,"MEAN_MOTION_DOT":0.00000632,"MEAN_MOTION_DDOT":0},{"OBJECT_NAME":"KUIPER-00176","OBJECT_ID":"2025-217AC","EPOCH":"2026-07-08T02:08:08.191680","CLASSIFICATION_TYPE":"U","MEAN_MOTION":14.7993546,"ECCENTRICITY":0.00004723,"INCLINATION":51.8986,"RA_OF_ASC_NODE":230.6921,"ARG_OF_PERICENTER":92.7388,"MEAN_ANOMALY":267.3628,"EPHEMERIS_TYPE":0,"NORAD_CAT_ID":65788,"ELEMENT_SET_NO":999,"REV_AT_EPOCH":4270,"BSTAR":0.0001938983,"MEAN_MOTION_DOT":0.00001257,"MEAN_MOTION_DDOT":0},{"OBJECT_NAME":"KUIPER-00101","OBJECT_ID":"2025-228A","EPOCH":"2026-07-08T17:00:43.060608","CLASSIFICATION_TYPE":"U","MEAN_MOTION":14.79934435,"ECCENTRICITY":0.00004876,"INCLINATION":51.8975,"RA_OF_ASC_NODE":185.4086,"ARG_OF_PERICENTER":70.489,"MEAN_ANOMALY":289.6125,"EPHEMERIS_TYPE":0,"NORAD_CAT_ID":65947,"ELEMENT_SET_NO":999,"REV_AT_EPOCH":4115,"BSTAR":0.00028179112,"MEAN_MOTION_DOT":0.00001928,"MEAN_MOTION_DDOT":0},{"OBJECT_NAME":"KUIPER-00113","OBJECT_ID":"2025-228B","EPOCH":"2026-07-08T09:50:52.801440","CLASSIFICATION_TYPE":"U","MEAN_MOTION":14.79920194,"ECCENTRICITY":0.00004954,"INCLINATION":51.8975,"RA_OF_ASC_NODE":181.7487,"ARG_OF_PERICENTER":73.8545,"MEAN_ANOMALY":286.2472,"EPHEMERIS_TYPE":0,"NORAD_CAT_ID":65948,"ELEMENT_SET_NO":999,"REV_AT_EPOCH":4117,"BSTAR":0.00028074413,"MEAN_MOTION_DOT":0.00001919,"MEAN_MOTION_DDOT":0},{"OBJECT_NAME":"KUIPER-00117","OBJECT_ID":"2025-228C","EPOCH":"2026-07-08T17:04:36.268032","CLASSIFICATION_TYPE":"U","MEAN_MOTION":14.7992819,"ECCENTRICITY":0.00005007,"INCLINATION":51.8966,"RA_OF_ASC_NODE":182.9144,"ARG_OF_PERICENTER":96.5887,"MEAN_ANOMALY":263.5132,"EPHEMERIS_TYPE":0,"NORAD_CAT_ID":65949,"ELEMENT_SET_NO":999,"REV_AT_EPOCH":4118,"BSTAR":0.000068554645,"MEAN_MOTION_DOT":0.00000302,"MEAN_MOTION_DDOT":0},{"OBJECT_NAME":"KUIPER-00121","OBJECT_ID":"2025-228D","EPOCH":"2026-07-08T22:52:43.386816","CLASSIFICATION_TYPE":"U","MEAN_MOTION":14.79933863,"ECCENTRICITY":0.00006036,"INCLINATION":51.8994,"RA_OF_ASC_NODE":176.8591,"ARG_OF_PERICENTER":71.7779,"MEAN_ANOMALY":288.3249,"EPHEMERIS_TYPE":0,"NORAD_CAT_ID":65950,"ELEMENT_SET_NO":999,"REV_AT_EPOCH":4129,"BSTAR":0.00025231354,"MEAN_MOTION_DOT":0.00001703,"MEAN_MOTION_DDOT":0},{"OBJECT_NAME":"KUIPER-00122","OBJECT_ID":"2025-228E","EPOCH":"2026-07-08T09:39:14.604768","CLASSIFICATION_TYPE":"U","MEAN_MOTION":14.79927851,"ECCENTRICITY":0.00004752,"INCLINATION":51.8982,"RA_OF_ASC_NODE":189.2702,"ARG_OF_PERICENTER":73.1628,"MEAN_ANOMALY":286.9386,"EPHEMERIS_TYPE":0,"NORAD_CAT_ID":65951,"ELEMENT_SET_NO":999,"REV_AT_EPOCH":4107,"BSTAR":0.00026858204,"MEAN_MOTION_DOT":0.00001827,"MEAN_MOTION_DDOT":0},{"OBJECT_NAME":"KUIPER-00123","OBJECT_ID":"2025-228F","EPOCH":"2026-07-08T16:56:49.920576","CLASSIFICATION_TYPE":"U","MEAN_MOTION":14.79935773,"ECCENTRICITY":0.00004756,"INCLINATION":51.8977,"RA_OF_ASC_NODE":187.9389,"ARG_OF_PERICENTER":49.7962,"MEAN_ANOMALY":310.3042,"EPHEMERIS_TYPE":0,"NORAD_CAT_ID":65952,"ELEMENT_SET_NO":999,"REV_AT_EPOCH":4111,"BSTAR":0.00025935952,"MEAN_MOTION_DOT":0.00001757,"MEAN_MOTION_DDOT":0},{"OBJECT_NAME":"KUIPER-00124","OBJECT_ID":"2025-228G","EPOCH":"2026-07-08T17:08:28.652928","CLASSIFICATION_TYPE":"U","MEAN_MOTION":14.79933476,"ECCENTRICITY":0.00005062,"INCLINATION":51.898,"RA_OF_ASC_NODE":180.3912,"ARG_OF_PERICENTER":70.9047,"MEAN_ANOMALY":289.197,"EPHEMERIS_TYPE":0,"NORAD_CAT_ID":65953,"ELEMENT_SET_NO":999,"REV_AT_EPOCH":4122,"BSTAR":0.00018972989,"MEAN_MOTION_DOT":0.00001226,"MEAN_MOTION_DDOT":0},{"OBJECT_NAME":"KUIPER-00125","OBJECT_ID":"2025-228H","EPOCH":"2026-07-08T22:23:31.327872","CLASSIFICATION_TYPE":"U","MEAN_MOTION":14.79923513,"ECCENTRICITY":0.00005737,"INCLINATION":51.8989,"RA_OF_ASC_NODE":164.4673,"ARG_OF_PERICENTER":72.2894,"MEAN_ANOMALY":287.8131,"EPHEMERIS_TYPE":0,"NORAD_CAT_ID":65954,"ELEMENT_SET_NO":999,"REV_AT_EPOCH":4146,"BSTAR":-0.000068272681,"MEAN_MOTION_DOT":-0.00000741,"MEAN_MOTION_DDOT":0},{"OBJECT_NAME":"KUIPER-00126","OBJECT_ID":"2025-228J","EPOCH":"2026-07-08T16:12:05.986656","CLASSIFICATION_TYPE":"U","MEAN_MOTION":14.79935715,"ECCENTRICITY":0.00005523,"INCLINATION":51.8977,"RA_OF_ASC_NODE":185.5949,"ARG_OF_PERICENTER":74.6734,"MEAN_ANOMALY":285.4289,"EPHEMERIS_TYPE":0,"NORAD_CAT_ID":65955,"ELEMENT_SET_NO":999,"REV_AT_EPOCH":4114,"BSTAR":0.00027712469,"MEAN_MOTION_DOT":0.00001892,"MEAN_MOTION_DDOT":0},{"OBJECT_NAME":"KUIPER-00127","OBJECT_ID":"2025-228K","EPOCH":"2026-07-08T15:59:24.863136","CLASSIFICATION_TYPE":"U","MEAN_MOTION":14.79920305,"ECCENTRICITY":0.00006976,"INCLINATION":51.9003,"RA_OF_ASC_NODE":178.1033,"ARG_OF_PERICENTER":71.8291,"MEAN_ANOMALY":288.2748,"EPHEMERIS_TYPE":0,"NORAD_CAT_ID":65956,"ELEMENT_SET_NO":999,"REV_AT_EPOCH":4125,"BSTAR":0.00011965064,"MEAN_MOTION_DOT":0.00000691,"MEAN_MOTION_DDOT":0},{"OBJECT_NAME":"KUIPER-00128","OBJECT_ID":"2025-228L","EPOCH":"2026-07-08T23:41:21.054336","CLASSIFICATION_TYPE":"U","MEAN_MOTION":14.79930136,"ECCENTRICITY":0.0000521,"INCLINATION":51.9002,"RA_OF_ASC_NODE":176.7496,"ARG_OF_PERICENTER":73.7012,"MEAN_ANOMALY":286.4008,"EPHEMERIS_TYPE":0,"NORAD_CAT_ID":65957,"ELEMENT_SET_NO":999,"REV_AT_EPOCH":4129,"BSTAR":0.00027546827,"MEAN_MOTION_DOT":0.00001879,"MEAN_MOTION_DDOT":0},{"OBJECT_NAME":"KUIPER-00129","OBJECT_ID":"2025-228M","EPOCH":"2026-07-08T23:00:29.778336","CLASSIFICATION_TYPE":"U","MEAN_MOTION":14.79930282,"ECCENTRICITY":0.00005234,"INCLINATION":51.8987,"RA_OF_ASC_NODE":171.8565,"ARG_OF_PERICENTER":72.8544,"MEAN_ANOMALY":287.2475,"EPHEMERIS_TYPE":0,"NORAD_CAT_ID":65958,"ELEMENT_SET_NO":999,"REV_AT_EPOCH":4136,"BSTAR":0.00017329887,"MEAN_MOTION_DOT":0.000011,"MEAN_MOTION_DDOT":0}]}
